[{"OBJECT_NAME":"STARLINK-11592 [DTC]","OBJECT_ID":"2025-075N","EPOCH":"2026-03-09T09:27:40.103424","MEAN_MOTION":15.70837575,"ECCENTRICITY":0.00012786,"INCLINATION":42.9984,"RA_OF_ASC_NODE":155.4447,"ARG_OF_PERICENTER":289.1792,"MEAN_ANOMALY":70.8937,"EPHEMERIS_TYPE":0,"CLASSIFICATION_TYPE":"U","NORAD_CAT_ID":63560,"ELEMENT_SET_NO":999,"REV_AT_EPOCH":5320,"BSTAR":0.0015143037,"MEAN_MOTION_DOT":0.00198548,"MEAN_MOTION_DDOT":0},{"OBJECT_NAME":"SL-16 DEB","OBJECT_ID":"1992-093LF","EPOCH":"2026-03-01T22:50:07.505664","MEAN_MOTION":15.66314523,"ECCENTRICITY":0.0005733,"INCLINATION":71.2496,"RA_OF_ASC_NODE":309.1259,"ARG_OF_PERICENTER":53.7691,"MEAN_ANOMALY":306.4041,"EPHEMERIS_TYPE":0,"CLASSIFICATION_TYPE":"U","NORAD_CAT_ID":39853,"ELEMENT_SET_NO":999,"REV_AT_EPOCH":63666,"BSTAR":0.0026636,"MEAN_MOTION_DOT":0.00285901,"MEAN_MOTION_DDOT":0}]
